{"type":"FeatureCollection","features":[{"type":"Feature","geometry":{"type":"Polygon","coordinates":[[[120.5349,17.7037],[120.4904,17.6017],[120.4876,17.545],[120.4681,17.5148],[120.5111,17.498],[120.6776,17.1873],[120.6832,17.1841],[120.7022,17.1587],[120.7664,17.1595],[120.7989,17.1879],[120.8773,17.1893],[120.8583,17.1882],[120.8144,17.1564],[120.7743,17.0753],[120.7872,16.9878],[120.7844,16.9524],[120.7755,16.9348],[120.6715,16.9105],[120.6304,16.8499],[120.6184,16.7286],[120.6079,16.6914],[120.5804,16.6592],[120.4693,16.4974],[120.5098,16.2755],[120.5125,16.237],[120.7689,16.2014],[120.9052,16.5959],[121.1765,16.6448],[121.2036,16.6372],[121.2305,16.6535],[121.2432,16.6533],[121.2527,16.6504],[121.2885,16.6578],[121.2972,16.6642],[121.3343,16.7446],[121.3363,16.7532],[121.3307,16.755],[121.3365,16.7584],[121.3455,16.7683],[121.3368,16.7781],[121.3548,16.7764],[121.3547,16.784],[121.3671,16.7967],[121.3808,16.796],[121.4259,16.8312],[121.4743,16.8346],[121.5806,16.8955],[121.5911,16.9168],[121.556,17.0488],[121.5543,17.0711],[121.5624,17.0951],[121.5498,17.2792],[121.6561,17.5082],[121.4957,17.6587],[121.4747,17.6753],[121.443,17.6898],[121.4179,17.7519],[121.3627,17.8066],[121.3136,17.8107],[121.3198,17.8169],[121.48,18.1344],[121.4672,18.2966],[121.0852,18.5411],[120.9611,18.4475],[120.9497,18.2937],[120.9589,18.1987],[120.9651,18.1938],[120.9731,18.1791],[120.9302,17.9842],[120.9278,17.9781],[120.9252,17.9647],[120.9202,17.9569],[120.9097,17.9506],[120.8498,17.9634],[120.5506,17.7296],[120.5349,17.7037]],[[120.8551,16.8387],[120.9012,16.8244],[120.8786,16.8235],[120.8551,16.8387]]]},"properties":{"name":"CAR"}},{"type":"Feature","geometry":{"type":"MultiPolygon","coordinates":[[[[125.2423,8.6596],[125.2442,8.5816],[125.2465,8.5614],[125.2618,8.4094],[125.3583,8.2456],[125.3635,8.2367],[125.3817,7.9855],[125.6752,7.9982],[126.131,7.9883],[126.154,7.9995],[126.3512,8.0009],[126.3561,7.9149],[126.45,7.9886],[126.4569,8.2444],[126.315,8.2289],[126.3917,8.5164],[126.0828,8.6114],[126.3356,8.84],[126.1584,9.1037],[126.2071,9.3069],[126.0486,9.2343],[125.9178,9.4951],[125.7477,9.3246],[125.7435,9.3175],[125.7429,9.3866],[125.7477,9.3246],[125.9178,9.4953],[125.667,9.5893],[125.4406,9.8247],[125.4531,9.4396],[125.5217,9.0133],[125.3318,8.969],[125.2057,9.0926],[125.2423,8.6596]]],[[[125.7022,9.88],[125.6763,10.1674],[125.5903,10.1422],[125.642,10.4719],[125.4732,10.1346],[125.7022,9.88]]],[[[125.97,9.5843],[125.9193,9.7596],[125.8878,9.6114],[125.97,9.5843]]],[[[126.1179,9.7557],[126.0614,10.0639],[125.9486,9.8347],[126.1179,9.7557]]],[[[125.5787,9.8221],[125.6875,9.8478],[125.6425,9.9158],[125.5787,9.8221]]]]},"properties":{"name":"Region XIII"}},{"type":"Feature","geometry":{"type":"MultiPolygon","coordinates":[[[[121.8686,11.7682],[122.1006,11.6997],[122.0539,11.0322],[121.9233,10.7638],[121.9116,10.4466],[122.0301,10.4671],[122.2074,10.6385],[122.5808,10.687],[122.6128,10.7753],[122.7669,10.8286],[122.7817,10.9869],[123.1199,11.1637],[123.1514,11.5978],[123.0971,11.5445],[122.8956,11.4236],[122.8275,11.6103],[122.5755,11.5517],[122.4525,11.5556],[122.3834,11.726],[122.3128,11.5987],[122.34442556390975,11.722130827067742],[121.9531,11.9391],[121.8686,11.7682]],[[122.2249,11.1538],[122.3222,11.2268],[122.2374,11.1391],[122.2249,11.1538]]],[[[122.5286,10.4083],[122.6819,10.5005],[122.7221,10.6925],[122.6644,10.7524],[122.4768,10.4982],[122.5286,10.4083]]],[[[123.336,10.3826],[123.5661,10.8436],[123.195,11.0036],[122.9519,10.8939],[122.9502,10.6833],[122.7955,10.5226],[122.8675,10.0961],[122.4505,9.9761],[122.3758,9.8367],[122.5511,9.4753],[122.5575,9.4736],[122.5817,9.4453],[122.5892,9.4439],[122.605,9.4253],[122.6086,9.4247],[122.6114,9.4197],[122.6135,9.4201],[122.6481,9.5001],[123.2009,10.2679],[123.1291,10.4103],[123.336,10.3826]]]]},"properties":{"name":"Region VI"}},{"type":"Feature","geometry":{"type":"MultiPolygon","coordinates":[[[[123.6008,13.5233],[123.56,13.7359],[123.9692,13.7087],[123.9417,13.7954],[123.7076,13.943],[123.6797,13.8777],[123.4483,13.9701],[123.4165,13.8858],[123.3414,14.1056],[123.2271,13.9869],[123.3411,13.9715],[123.3286,13.7853],[123.1229,13.7264],[123.0592,13.8371],[123.044,14.0977],[122.7571,14.3268],[122.4161,14.315],[122.3017,14.0827],[122.3188,14.064],[122.3297,14.0624],[122.4442,14.1486],[122.7926,14.0145],[122.5483,13.9495],[123.2775,13.2642],[123.2822,13.0548],[123.4825,12.9939],[123.6522,12.87],[123.7233,12.9506],[123.7339,12.8447],[124.0225,12.9724],[124.017,12.8767],[123.8303,12.8289],[123.8753,12.6561],[124.0808,12.5358],[124.1958,13.0547],[124.0847,13.0022],[123.94,13.1181],[123.7524,13.0655],[123.7747,13.228],[123.867,13.2408],[123.6008,13.5233]]],[[[124.0197,13.2171],[124.0994,13.2591],[123.9085,13.287],[124.0197,13.2171]]],[[[124.346,13.6205],[124.4217,13.849],[124.2024,14.0991],[124.0232,13.6627],[124.2082,13.5164],[124.346,13.6205]]],[[[124.0649,11.7201],[123.9976,12.0114],[124.0522,11.9674],[123.895,12.2089],[123.7833,12.1956],[123.4453,12.5169],[123.3297,12.4328],[123.3789,12.5417],[123.2358,12.6011],[123.2167,12.2375],[123.3042,12.1986],[123.1594,11.9061],[123.5403,12.2294],[123.7215,11.9317],[123.9376,11.8931],[124.0649,11.7201]]],[[[123.7922,12.4033],[123.6008,12.6842],[123.7883,12.3383],[123.7922,12.4033]]],[[[123.1722,12.8828],[123.3861,12.6947],[123.0428,13.1378],[122.9282,13.1131],[123.1722,12.8828]]]]},"properties":{"name":"Region V"}},{"type":"Feature","geometry":{"type":"MultiPolygon","coordinates":[[[[121.4195,15.2152],[121.3845,15.365],[121.6395,15.7041],[121.5548,15.8984],[122.1311,16.2614],[122.032,16.05],[122.2056,16.2408],[122.2734,16.5245],[122.2284,16.5281],[122.065,16.4879],[121.8353,16.2279],[121.4676,15.9166],[121.3058,15.7867],[121.2817,15.7705],[121.2874,15.7534],[121.2787,15.7796],[121.2354,15.854],[121.1754,16.0908],[120.88,16.1059],[120.9185,15.9702],[120.9032,15.9112],[120.8778,15.888],[120.8756,15.8704],[120.8665,15.845],[120.8592,15.8308],[120.8386,15.8137],[120.8348,15.8109],[120.8195,15.7931],[120.7751,15.8333],[120.6128,15.8321],[120.6149,15.846],[120.588,15.8891],[120.5479,15.7707],[120.3926,15.7655],[120.3239,15.65],[120.3073,15.6473],[120.2943,15.6387],[120.2769,15.6324],[120.2539,15.6185],[120.2635,15.5993],[120.2488,15.6311],[120.1487,15.824],[119.9244,15.8066],[119.8989,15.806],[119.9681,15.5078],[119.8897,15.4308],[120.0158,15.2669],[120.0828,14.7872],[120.178,14.7406],[120.2149,14.8769],[120.3379,14.8284],[120.2482,14.6924],[120.5,14.406],[120.6129,14.5337],[120.5154,14.8498],[120.6345,14.8658],[120.6519,14.7672],[120.7053,14.8617],[120.7019,14.7937],[120.9169,14.6919],[120.9204,14.6992],[120.9351,14.6986],[120.9452,14.6811],[120.956,14.6995],[121.0577,14.7783],[121.0608,14.7794],[121.1058,14.7569],[121.1251,14.7575],[121.3454,14.8923],[121.3418,14.9964],[121.3425,15.0115],[121.3513,15.0191],[121.3982,15.126],[121.3995,15.1408],[121.3979,15.1732],[121.4072,15.188],[121.4195,15.2152]],[[120.9554,15.2181],[120.9008,15.2081],[120.9266,15.216],[120.9829,15.2229],[120.9554,15.2181]]],[[[121.3091,15.1912],[121.3117,15.1994],[121.3238,15.2388],[121.3091,15.1912]]],[[[119.9244,15.8066],[119.9246,15.8072],[119.924,15.8071],[119.9244,15.8066]]]]},"properties":{"name":"Region III"}},{"type":"Feature","geometry":{"type":"MultiPolygon","coordinates":[[[[122.0697,6.4236],[122.3231,6.6342],[122.0628,6.7517],[121.8138,6.6646],[121.9551,6.4074],[122.0697,6.4236]]],[[[124.1985,7.421],[124.2596,7.3594],[124.1608,7.2031],[124.2394,7.1728],[124.0525,7.1294],[123.9433,6.8192],[124.2075,6.7506],[124.2825,6.724],[124.5109,6.7232],[124.6583,6.8834],[124.7994,6.6494],[125.0037,6.7206],[124.9798,6.7315],[124.9737,6.7348],[124.9729,6.7379],[124.9686,6.7392],[124.8143,6.7809],[124.8224,7.0837],[124.709,7.1905],[124.6768,6.9457],[124.4284,7.0867],[124.5087,7.2324],[124.3287,7.1719],[124.4865,7.444],[124.4406,7.652],[124.8067,7.6036],[124.8077,7.607],[124.7359,7.7244],[124.7349,7.7312],[124.7292,7.7333],[124.719,7.7482],[124.711,7.7511],[124.7035,7.7764],[124.6483,7.8352],[124.6306,7.8501],[124.6219,7.8776],[124.6193,7.8913],[124.4996,8.1341],[124.4662,8.1603],[124.2984,8.2078],[124.2848,8.0885],[124.2478,8.0473],[124.0234,7.8996],[124.0009,7.6942],[123.8154,7.7001],[124.0133,7.6469],[124.1985,7.421]]],[[[120.8983,5.9169],[121.1956,5.9535],[121.2857,5.8557],[121.4258,5.9831],[121.0278,6.0906],[120.8983,5.9169]]],[[[121.876,6.0281],[121.7621,6.0931],[121.8556,5.9981],[121.9491,6.0548],[121.876,6.0281]]],[[[120.5522,6.2425],[120.5972,6.3947],[120.4761,6.2672],[120.5522,6.2425]]],[[[120.2206,5.1522],[120.1752,5.3446],[119.814,5.0785],[119.9613,5.077],[120.1242,5.2411],[120.2206,5.1522]]]]},"properties":{"name":"BARMM"}},{"type":"Feature","geometry":{"type":"MultiPolygon","coordinates":[[[[121.8564,20.7308],[121.8604,20.8364],[121.7814,20.7197],[121.8564,20.7308]]],[[[121.6561,17.5082],[121.5498,17.2792],[121.5624,17.0951],[121.556,17.0488],[121.5911,16.9168],[121.5806,16.8955],[121.4743,16.8346],[121.4259,16.8312],[121.3808,16.796],[121.3671,16.7967],[121.3547,16.784],[121.3548,16.7764],[121.3368,16.7781],[121.3455,16.7683],[121.3365,16.7584],[121.3307,16.755],[121.3363,16.7532],[121.335,16.7473],[121.3343,16.7446],[121.2972,16.6642],[121.2885,16.6578],[121.2527,16.6504],[121.2432,16.6533],[121.2305,16.6535],[121.2036,16.6372],[121.1765,16.6448],[120.9052,16.5959],[120.7689,16.2014],[120.88,16.1059],[121.1754,16.0908],[121.2354,15.854],[121.2787,15.7796],[121.2817,15.7705],[121.2842,15.7713],[121.3134,15.7928],[121.4676,15.9166],[121.8353,16.2279],[122.065,16.4879],[122.1317,16.5301],[122.2284,16.5281],[122.2734,16.5245],[122.5289,17.0978],[122.1347,17.5402],[122.1664,18.0825],[122.3389,18.3081],[122.2344,18.5177],[121.8998,18.2607],[121.6286,18.3627],[121.6537,18.2913],[121.1615,18.6219],[120.9728,18.5823],[120.9611,18.4475],[121.0852,18.5411],[121.4672,18.2966],[121.48,18.1344],[121.3198,17.8169],[121.3136,17.8107],[121.3627,17.8066],[121.4179,17.7519],[121.443,17.6898],[121.4747,17.6753],[121.4957,17.6587],[121.6561,17.5082]],[[121.558,16.6298],[121.4074,16.6408],[121.4091,16.6415],[121.558,16.6298]]],[[[121.4639,19.2667],[121.5239,19.3886],[121.3472,19.3633],[121.4639,19.2667]]],[[[121.8913,18.8682],[121.9456,19.0036],[121.8372,18.8204],[121.8913,18.8682]]],[[[121.974,19.571],[121.8919,19.5406],[121.9592,19.4753],[121.974,19.571]]]]},"properties":{"name":"Region II"}},{"type":"Feature","geometry":{"type":"MultiPolygon","coordinates":[[[[121.4541,13.8216],[121.7511,13.968],[122.0985,13.7849],[122.2093,13.6005],[122.4013,13.5243],[122.6001,13.1623],[122.7029,13.2241],[122.6764,13.3796],[122.4181,13.9525],[122.5483,13.9495],[122.7926,14.0145],[122.4442,14.1486],[122.3297,14.0624],[122.3188,14.064],[122.3017,14.0827],[122.2499,14.2426],[122.1644,14.1418],[122.3232,14.0207],[122.1824,13.9947],[122.2326,13.8956],[121.7344,14.1637],[121.604,14.6522],[121.7344,14.6953],[121.4195,15.2152],[121.4072,15.188],[121.3979,15.1732],[121.3995,15.1408],[121.3982,15.126],[121.3513,15.0191],[121.3418,14.9964],[121.3454,14.8923],[121.1251,14.7575],[121.1181,14.7532],[121.1248,14.7442],[121.1271,14.7365],[121.1277,14.6662],[121.1258,14.6434],[121.1276,14.6351],[121.1135,14.6383],[121.1032,14.6327],[121.105,14.6171],[121.1062,14.6052],[121.0956,14.5416],[121.1084,14.5273],[121.1057,14.5242],[121.0913,14.5212],[121.0791,14.508],[121.074,14.5137],[121.0679,14.5093],[121.0599,14.4755],[121.052,14.3755],[121.0424,14.3724],[121.0089,14.3117],[121.007,14.3493],[120.9971,14.407],[120.9898,14.417],[120.9775,14.4358],[120.969,14.4556],[120.9696,14.4755],[120.6212,14.2213],[120.6589,13.7681],[120.79,13.9278],[120.9118,13.8767],[120.8922,13.6831],[121.0008,13.7819],[121.0356,13.6346],[121.2855,13.5968],[121.47,13.6854],[121.4541,13.8216]],[[121.4698,14.5758],[121.4478,14.6079],[121.4865,14.5519],[121.4698,14.5758]]],[[[122.1695,14.8336],[122.094,14.8408],[122.2579,14.7266],[122.1695,14.8336]]],[[[121.9376,14.7117],[121.9387,14.6261],[122.0369,14.7138],[121.9662,14.9007],[122.0566,14.963],[121.9491,15.058],[121.8009,14.9361],[121.9376,14.7117]]]]},"properties":{"name":"Region IV-A"}},{"type":"Feature","geometry":{"type":"MultiPolygon","coordinates":[[[[124.5737,11.4722],[124.536,11.6761],[124.3339,11.6769],[124.4631,11.4672],[124.5737,11.4722]]],[[[125.7378,10.7022],[125.8206,10.7183],[125.6921,10.8242],[125.7378,10.7022]]],[[[125.1456,12.187],[125.1529,12.2868],[125.153,12.301],[125.1456,12.187]]],[[[125.3192,12.2801],[125.2917,12.4689],[124.9892,12.6433],[124.9903,12.5523],[124.6524,12.4903],[124.2808,12.5833],[124.3567,12.2828],[124.5278,12.0631],[124.7199,12.0155],[124.8854,11.7535],[125.0381,11.7583],[124.821,11.4897],[124.9131,11.5067],[124.9958,11.4302],[124.9785,11.2834],[125.1503,11.2756],[125.2531,11.1175],[125.6606,11.1417],[125.7633,11.0328],[125.6656,11.1981],[125.5336,11.1989],[125.6331,11.3569],[125.494,11.4473],[125.4136,11.7567],[125.5161,12.0606],[125.4247,12.1442],[125.515,12.1922],[125.3192,12.2801]]],[[[124.761,10.1855],[125.029,10.0058],[125.0064,10.3808],[125.135,10.0622],[125.2889,9.9125],[125.1292,10.1622],[125.1321,10.2764],[125.2681,10.2989],[125.1869,10.5908],[125.1135,10.5875],[125.1159,10.6956],[125.0011,10.7281],[125.0397,11.0653],[125.0311,11.2373],[124.9627,11.2803],[124.9799,11.3985],[124.8155,11.4324],[124.5848,11.305],[124.3131,11.5633],[124.3754,10.9231],[124.5166,10.8675],[124.5952,11.0135],[124.7827,10.7759],[124.761,10.1855]]],[[[124.8248,11.6064],[124.7186,11.7295],[124.8232,11.5295],[124.8248,11.6064]]]]},"properties":{"name":"Region VIII"}},{"type":"Feature","geometry":{"type":"MultiPolygon","coordinates":[[[[123.9509,9.6075],[124.2577,9.5979],[124.5719,9.7327],[124.5473,10.0403],[124.1525,10.1536],[124.0261,9.9675],[123.785,9.8556],[123.9509,9.6075]]],[[[123.7704,9.5476],[123.8721,9.6257],[123.7183,9.5886],[123.7704,9.5476]]],[[[123.336,9.4144],[123.641,10.0839],[124.0214,10.3834],[123.9828,11.0734],[124.0647,11.2859],[123.3693,9.9886],[123.336,9.4144]]],[[[123.7394,11.1417],[123.8092,11.155],[123.7297,11.3006],[123.7394,11.1417]]],[[[124.318,10.5944],[124.5153,10.6702],[124.3164,10.7097],[124.318,10.5944]]],[[[122.6481,9.5001],[122.6129,9.4203],[122.6194,9.4219],[122.6261,9.4214],[122.6747,9.3797],[122.7947,9.3631],[122.8725,9.32],[122.9419,9.0753],[123.202,9.0937],[123.3132,9.3188],[123.1064,9.6297],[123.336,10.3826],[123.1291,10.4103],[123.2009,10.2679],[122.6481,9.5001]]],[[[123.5989,9.0977],[123.7019,9.1449],[123.6231,9.3002],[123.4521,9.1932],[123.5989,9.0977]]]]},"properties":{"name":"Region VII"}},{"type":"Feature","geometry":{"type":"MultiPolygon","coordinates":[[[[124.807,7.5954],[124.8802,7.4155],[125.0678,7.4518],[125.0994,7.4514],[125.2395,7.5872],[125.252,7.5798],[125.2518,7.5921],[125.2565,7.6054],[125.4429,7.7165],[125.4425,7.7369],[125.4441,7.7556],[125.4281,7.8012],[125.4027,7.9601],[125.396,7.9746],[125.3817,7.9855],[125.3635,8.2367],[125.3583,8.2456],[125.2618,8.4094],[125.2465,8.5614],[125.2442,8.5816],[125.2423,8.6596],[125.2057,9.0926],[125.0919,8.8275],[124.7989,8.9956],[124.7511,8.5039],[124.4417,8.6211],[124.3117,8.5361],[124.2908,8.3392],[124.2211,8.2111],[123.8481,8.1121],[123.6543,7.8885],[123.6246,7.8322],[123.8154,7.7001],[124.0009,7.6942],[124.0234,7.8996],[124.2478,8.0473],[124.2848,8.0885],[124.2984,8.2078],[124.4662,8.1603],[124.4956,8.138],[124.4996,8.1341],[124.6193,7.8913],[124.6219,7.8776],[124.6306,7.8501],[124.6483,7.8352],[124.7035,7.7764],[124.711,7.7511],[124.719,7.7482],[124.7292,7.7333],[124.7349,7.7312],[124.7359,7.7244],[124.8077,7.607],[124.807,7.5954]],[[124.561,8.2322],[124.5652,8.2352],[124.5671,8.2352],[124.561,8.2322]]],[[[124.7575,9.0844],[124.7788,9.2037],[124.6687,9.2502],[124.6423,9.1537],[124.7575,9.0844]]],[[[123.6323,8.0212],[123.8687,8.1865],[123.7579,8.5983],[123.6091,8.6702],[123.5549,8.2755],[123.5507,8.2491],[123.5482,8.1957],[123.6323,8.0212]]]]},"properties":{"name":"Region X"}},{"type":"Feature","geometry":{"type":"MultiPolygon","coordinates":[[[[125.9478,7.0777],[126.1926,6.2691],[126.2611,6.754],[126.1553,6.9056],[126.2603,6.93],[126.3499,6.8021],[126.2819,6.9283],[126.4587,6.9945],[126.6052,7.2879],[126.5703,7.7183],[126.3561,7.9149],[126.3512,8.0009],[126.1629,8],[126.1499,7.9981],[126.131,7.9883],[125.6752,7.9982],[125.3817,7.9855],[125.396,7.9746],[125.4027,7.9601],[125.4281,7.8012],[125.4441,7.7556],[125.4425,7.7369],[125.4429,7.7165],[125.2565,7.6054],[125.2518,7.5921],[125.252,7.5798],[125.2504,7.5794],[125.2536,7.5648],[125.2842,7.1229],[125.2928,7.1022],[125.3099,7.0376],[125.3123,7.0203],[125.1208,6.7563],[125.175,6.6348],[125.1929,6.5933],[125.1964,6.5492],[125.1987,6.5102],[125.1717,6.4695],[125.2614,6.3343],[125.4437,6.3246],[125.4477,6.3144],[125.4858,6.261],[125.5037,6.2343],[125.5039,6.1834],[125.5063,6.16],[125.5097,6.1383],[125.5341,6.0575],[125.528,6.0422],[125.4863,5.9164],[125.4808,5.9021],[125.4896,5.8563],[125.4802,5.8397],[125.3187,5.5976],[125.3177,5.5802],[125.3231,5.5694],[125.4134,5.5721],[125.702,6.0249],[125.5934,6.5016],[125.3597,6.6025],[125.377,6.8091],[125.7146,7.3002],[125.8305,7.3654],[125.9478,7.0777]]],[[[125.7155,7.0597],[125.7664,6.8925],[125.7974,7.1172],[125.7066,7.1975],[125.7155,7.0597]]]]},"properties":{"name":"Region XI"}},{"type":"Feature","geometry":{"type":"MultiPolygon","coordinates":[[[[120.4599,17.8969],[120.344,17.5761],[120.4789,17.3936],[120.4103,16.9206],[120.2775,16.6208],[120.4154,16.2083],[120.3278,16.0583],[120.1556,16.0129],[120.0875,16.1706],[119.9144,16.2419],[119.925,16.3836],[119.8197,16.3617],[119.7495,15.9663],[119.8625,15.955],[119.8989,15.806],[119.9244,15.8066],[120.1487,15.824],[120.2488,15.6311],[120.2539,15.6185],[120.2769,15.6324],[120.2943,15.6387],[120.3073,15.6473],[120.3239,15.65],[120.3926,15.7655],[120.5479,15.7707],[120.588,15.8891],[120.6149,15.846],[120.6128,15.8321],[120.7751,15.8333],[120.8195,15.7931],[120.8348,15.8109],[120.8386,15.8137],[120.8592,15.8308],[120.8665,15.845],[120.8756,15.8704],[120.8778,15.888],[120.9032,15.9112],[120.9185,15.9702],[120.88,16.1059],[120.7689,16.2014],[120.5125,16.237],[120.5063,16.2291],[120.5098,16.2755],[120.4693,16.4974],[120.5804,16.6592],[120.6079,16.6914],[120.6184,16.7286],[120.6304,16.8499],[120.6715,16.9105],[120.7755,16.9348],[120.7844,16.9524],[120.7872,16.9878],[120.7743,17.0753],[120.8144,17.1564],[120.8583,17.1882],[120.7989,17.1879],[120.7664,17.1595],[120.7022,17.1587],[120.6832,17.1841],[120.6776,17.1873],[120.5111,17.498],[120.4681,17.5148],[120.4876,17.545],[120.4904,17.6017],[120.5349,17.7037],[120.5506,17.7296],[120.8498,17.9634],[120.9097,17.9506],[120.9202,17.9569],[120.9252,17.9647],[120.9302,17.9842],[120.9731,18.1791],[120.9651,18.1938],[120.9589,18.1987],[120.9497,18.2937],[120.9611,18.4475],[120.9728,18.5823],[120.8436,18.6514],[120.5625,18.4925],[120.4599,17.8969]],[[119.9244,15.8066],[119.924,15.8071],[119.9246,15.8072],[119.9244,15.8066]]],[[[120.0125,16.2316],[119.9719,16.35],[119.9185,16.293],[120.0125,16.2316]]]]},"properties":{"name":"Region I"}},{"type":"Feature","geometry":{"type":"MultiPolygon","coordinates":[[[[122.031,13.2008],[122.1277,13.4552],[121.8655,13.5704],[121.8203,13.3444],[122.031,13.2008]]],[[[121.2424,12.209],[121.3964,12.2856],[121.4378,12.5167],[121.5578,12.6061],[121.4761,12.7739],[121.5569,13.1197],[121.4439,13.1303],[121.2004,13.4374],[121.1369,13.3622],[120.9925,13.5231],[120.8922,13.4989],[120.4146,13.5312],[120.2989,13.4458],[120.4637,13.4136],[120.5228,13.2239],[120.6508,13.1908],[120.9256,12.5056],[121.2424,12.209]]],[[[117.0558,7.8369],[117.0659,8.0803],[116.9283,7.9369],[117.0558,7.8369]]],[[[117.2414,8.3722],[117.5005,8.5004],[117.5654,8.6736],[118.0032,8.8801],[118.1246,9.145],[118.4889,9.2936],[118.7608,9.6667],[118.6914,9.7639],[118.7703,9.7228],[118.7514,9.9286],[119.197,10.0475],[119.3232,10.3117],[119.7166,10.5077],[119.6578,10.6742],[119.5704,10.6648],[119.5994,10.8225],[119.4837,10.875],[119.5697,11.0069],[119.5043,11.4161],[119.3755,11.1839],[119.4162,11.0374],[119.3258,11.1064],[119.3739,11.005],[119.303,11.0075],[119.4619,10.7247],[119.2204,10.9542],[119.3433,10.7356],[119.2559,10.4838],[119.1392,10.382],[119.1144,10.4853],[118.9861,10.4075],[118.9392,10.2086],[118.806,10.1923],[118.8086,10.0303],[118.7619,10.1333],[118.1267,9.3428],[117.6297,9.0481],[117.2547,8.6092],[117.1743,8.3404],[117.2414,8.3722]]],[[[119.8202,10.4461],[119.9939,10.5919],[119.8272,10.6522],[119.742,10.5478],[119.8202,10.4461]]],[[[119.8509,11.4303],[119.8447,11.5167],[119.7125,11.4725],[119.8509,11.4303]]],[[[120.2764,11.9364],[120.1919,11.9517],[120.2555,11.8144],[120.2764,11.9364]]],[[[120.3317,12.0208],[120.2177,12.2264],[120.1765,12.1176],[119.8639,12.3097],[119.8522,12.1478],[119.8961,12.2014],[119.9789,12.0086],[120.3317,12.0208]]],[[[120.0374,11.7549],[120.0258,11.9286],[119.8486,11.9545],[119.9258,11.7621],[120.0031,11.7869],[119.9447,11.6583],[120.0374,11.7549]]],[[[122.0169,12.0992],[122.1161,12.6744],[121.9217,12.3186],[122.0169,12.0992]]],[[[122.6361,12.2847],[122.6556,12.4836],[122.4283,12.4563],[122.6361,12.2847]]]]},"properties":{"name":"Region IV-B"}},{"type":"Feature","geometry":{"type":"Polygon","coordinates":[[[120.9696,14.4755],[120.969,14.4556],[120.9775,14.4358],[120.9898,14.417],[120.9971,14.407],[121.007,14.3493],[121.0424,14.3724],[121.052,14.3755],[121.0599,14.4755],[121.0679,14.5093],[121.074,14.5137],[121.0791,14.508],[121.0913,14.5212],[121.1057,14.5242],[121.0956,14.5416],[121.1062,14.6052],[121.105,14.6171],[121.1032,14.6327],[121.1135,14.6383],[121.1276,14.6351],[121.1258,14.6434],[121.1277,14.6662],[121.1271,14.7365],[121.1248,14.7442],[121.1181,14.7532],[121.1058,14.7569],[121.0608,14.7794],[121.0577,14.7783],[120.956,14.6995],[120.9452,14.6811],[120.9351,14.6986],[120.9204,14.6992],[120.9169,14.6919],[121.0148,14.5939],[120.9696,14.4755]]]},"properties":{"name":"NCR"}},{"type":"Feature","geometry":{"type":"Polygon","coordinates":[[[124.4406,7.652],[124.4865,7.444],[124.3287,7.1719],[124.5087,7.2324],[124.4284,7.0867],[124.6768,6.9457],[124.709,7.1905],[124.8224,7.0837],[124.8143,6.7809],[124.9686,6.7392],[124.9729,6.7379],[124.9737,6.7348],[124.9798,6.7315],[125.0037,6.7206],[124.7994,6.6494],[124.6583,6.8834],[124.5109,6.7232],[124.2825,6.724],[124.2075,6.7506],[124.0161,6.725],[124.0272,6.4567],[124.3521,6.1184],[124.9239,5.8589],[125.076,5.8599],[125.1016,5.9548],[125.2369,6.1033],[125.2908,5.9773],[125.1745,5.7978],[125.3231,5.5694],[125.3177,5.5802],[125.3187,5.5976],[125.4802,5.8397],[125.4896,5.8563],[125.4808,5.9021],[125.4863,5.9164],[125.528,6.0422],[125.5341,6.0575],[125.5097,6.1383],[125.5063,6.16],[125.5039,6.1834],[125.5037,6.2343],[125.4858,6.261],[125.4477,6.3144],[125.4437,6.3246],[125.2614,6.3343],[125.1717,6.4695],[125.1987,6.5102],[125.1968,6.5361],[125.1964,6.5492],[125.1929,6.5933],[125.175,6.6348],[125.1208,6.7563],[125.3123,7.0203],[125.3099,7.0376],[125.2928,7.1022],[125.2842,7.1229],[125.2536,7.5648],[125.2504,7.5794],[125.2395,7.5872],[125.0994,7.4514],[125.0678,7.4518],[124.8802,7.4155],[124.807,7.5954],[124.8067,7.6036],[124.4406,7.652]]]},"properties":{"name":"Region XII"}},{"type":"Feature","geometry":{"type":"MultiPolygon","coordinates":[[[[123.5549,8.2755],[123.5546,8.6213],[123.3793,8.7268],[123.4144,8.6331],[123.2979,8.5187],[123.0308,8.4903],[122.9125,8.1467],[122.6614,8.1622],[122.2686,7.9983],[122.0853,7.7361],[122.1431,7.5742],[122.0635,7.2949],[121.9014,7.146],[121.9379,6.9641],[122.1508,6.9067],[122.3564,7.4644],[122.6583,7.7889],[122.8125,7.7444],[122.8145,7.4337],[122.9038,7.5443],[122.9921,7.4573],[123.0975,7.705],[123.1962,7.5914],[123.0972,7.6025],[123.1158,7.5139],[123.3013,7.5303],[123.416,7.359],[123.3369,7.5511],[123.4782,7.669],[123.4241,7.8154],[123.6246,7.8322],[123.6543,7.8885],[123.6323,8.0212],[123.5482,8.1957],[123.5496,8.2154],[123.5507,8.2491],[123.5549,8.2755]],[[122.9464,7.9143],[122.9159,7.9186],[122.8718,7.9257],[122.9464,7.9143]]],[[[122.8819,7.3167],[122.9733,7.3706],[122.8061,7.4303],[122.8072,7.2917],[122.8819,7.3167]]]]},"properties":{"name":"Region IX"}}]}